NORAD_CAT_ID,OBJECT_NAME,OBJECT_TYPE,EPOCH,MEAN_MOTION,ECCENTRICITY,INCLINATION,RA_OF_ASC_NODE,ARG_OF_PERICENTER,MEAN_ANOMALY,BSTAR,MEAN_MOTION_DOT,MEAN_MOTION_DDOT,TLE_LINE0,TLE_LINE1,TLE_LINE2,SEMIMAJOR_AXIS,PERIOD,APOGEE,PERIGEE,DECAYED
53777.0,STARLINK-4664,PAYLOAD,2023-05-19 10:10:10,15.08842043,0.000106,53.2149,196.8738,84.4778,275.6335,3.6136e-05,2.87e-06,0.0,0 STARLINK-4664,1 53777U 22111E   23139.42373624  .00000287  00000-0  36136-4 0  9995,2 53777  53.2149 196.8738 0001060  84.4778 275.6335 15.08842043 38919,6917.874,95.437,540.472,539.006,0.0
53777.0,STARLINK-4664,PAYLOAD,2023-05-20 10:00:57,15.08848255,0.0001123,53.2152,192.4141,77.1211,282.9906,0.00015547,2.188e-05,0.0,0 STARLINK-4664,1 53777U 22111E   23140.41732864  .00002188  00000-0  15547-3 0  9995,2 53777  53.2152 192.4141 0001123  77.1211 282.9906 15.08848255 38257,6917.855,95.437,540.497,538.943,0.0
53777.0,STARLINK-4664,PAYLOAD,2023-05-21 03:30:11,15.08846325,0.000127,53.2162,189.1429,79.0318,281.0817,0.00010394,1.367e-05,0.0,0 STARLINK-4664,1 53777U 22111E   23141.14596958  .00001367  00000-0  10394-3 0  9991,2 53777  53.2162 189.1429 0001270  79.0318 281.0817 15.08846325 38361,6917.861,95.437,540.605,538.847,0.0
53777.0,STARLINK-4664,PAYLOAD,2023-05-21 08:16:21,15.08825746,0.0001095,53.2163,188.2493,102.5494,257.5621,0.00034711,5.239e-05,0.0,0 STARLINK-4664,1 53777U 22111E   23141.34469644  .00005239  00000-0  34711-3 0  9995,2 53777  53.2163 188.2493 0001095 102.5494 257.5621 15.08825746 38393,6917.924,95.438,540.546,539.031,0.0
53777.0,STARLINK-4664,PAYLOAD,2023-05-21 13:02:30,15.08844496,0.0001171,53.2161,187.3572,97.5962,262.5163,5.0567e-05,5.17e-06,0.0,0 STARLINK-4664,1 53777U 22111E   23141.54340925  .00000517  00000-0  50567-4 0  9999,2 53777  53.2161 187.3572 0001171  97.5962 262.5163 15.08844496 39231,6917.867,95.437,540.542,538.922,0.0
53777.0,STARLINK-4664,PAYLOAD,2023-05-22 09:42:32,15.08835691,0.0001298,53.2161,183.4884,89.0631,271.051,-3.0926e-05,-7.8e-06,0.0,0 STARLINK-4664,1 53777U 22111E   23142.40453901 -.00000780  00000-0 -30926-4 0  9995,2 53777  53.2161 183.4884 0001298  89.0631 271.0510 15.08835691 38555,6917.894,95.438,540.657,538.861,0.0
53777.0,STARLINK-4664,PAYLOAD,2023-05-22 19:14:50,15.0883602,9.37e-05,53.2147,181.7039,86.245,273.8649,7.5132e-07,-2.76e-06,0.0,0 STARLINK-4664,1 53777U 22111E   23142.80197864 -.00000276  00000-0  75132-6 0  9991,2 53777  53.2147 181.7039 0000937  86.2450 273.8649 15.08836020 39426,6917.893,95.438,540.406,539.109,0.0
53777.0,STARLINK-4664,PAYLOAD,2023-05-23 19:05:38,15.08840118,9.77e-05,53.2146,177.2443,72.5907,287.5192,2.852e-05,1.66e-06,0.0,0 STARLINK-4664,1 53777U 22111E   23143.79557930  .00000166  00000-0  28520-4 0  9998,2 53777  53.2146 177.2443 0000977  72.5907 287.5192 15.08840118 39577,6917.88,95.438,540.421,539.069,0.0
53777.0,STARLINK-4664,PAYLOAD,2023-05-24 03:02:34,15.08834545,0.000101,53.2151,175.7615,93.4213,266.6894,0.00011678,1.571e-05,0.0,0 STARLINK-4664,1 53777U 22111E   23144.12678329  .00001571  00000-0  11678-3 0  9998,2 53777  53.2151 175.7615 0001010  93.4213 266.6894 15.08834545 38818,6917.897,95.438,540.461,539.063,0.0
53777.0,STARLINK-4664,PAYLOAD,2023-05-24 10:59:29,15.08836772,0.0001035,53.2152,174.275,94.1788,265.9323,0.00012903,1.766e-05,0.0,0 STARLINK-4664,1 53777U 22111E   23144.45798316  .00001766  00000-0  12903-3 0  9991,2 53777  53.2152 174.2750 0001035  94.1788 265.9323 15.08836772 39673,6917.89,95.438,540.471,539.039,0.0
53777.0,STARLINK-4664,PAYLOAD,2023-05-26 01:08:45,15.08839938,0.0001083,53.2152,167.1356,85.4397,274.6719,6.7865e-05,7.92e-06,0.0,0 STARLINK-4664,1 53777U 22111E   23146.04774566  .00000792  00000-0  67865-4 0  9995,2 53777  53.2152 167.1356 0001083  85.4397 274.6719 15.08839938 39109,6917.881,95.438,540.495,538.996,0.0
53777.0,STARLINK-4664,PAYLOAD,2023-05-26 09:05:40,15.08842855,0.0001057,53.2149,165.6494,84.4359,275.6754,6.4486e-05,7.39e-06,0.0,0 STARLINK-4664,1 53777U 22111E   23146.37894335  .00000739  00000-0  64486-4 0  9995,2 53777  53.2149 165.6494 0001057  84.4359 275.6754 15.08842855 39965,6917.872,95.437,540.468,539.005,0.0
53777.0,STARLINK-4664,PAYLOAD,2023-05-27 10:31:50,15.08841432,0.0001009,53.2146,160.8916,84.1441,275.9666,6.3024e-05,7.15e-06,0.0,0 STARLINK-4664,1 53777U 22111E   23147.43878299  .00000715  00000-0  63024-4 0  9995,2 53777  53.2146 160.8916 0001009  84.1441 275.9666 15.08841432 39318,6917.876,95.437,540.439,539.043,0.0
53777.0,STARLINK-4664,PAYLOAD,2023-05-27 18:28:46,15.08841599,0.0001014,53.2145,159.4048,83.4795,276.6313,5.5922e-05,6.02e-06,0.0,0 STARLINK-4664,1 53777U 22111E   23147.76998282  .00000602  00000-0  55922-4 0  9999,2 53777  53.2145 159.4048 0001014  83.4795 276.6313 15.08841599 40174,6917.876,95.437,540.442,539.039,0.0
53777.0,STARLINK-4664,PAYLOAD,2023-05-28 05:36:28,15.08841862,0.0001034,53.2147,157.3232,85.009,275.102,4.8896e-05,4.91e-06,0.0,0 STARLINK-4664,1 53777U 22111E   23148.23366272  .00000491  00000-0  48896-4 0  9998,2 53777  53.2147 157.3232 0001034  85.0090 275.1020 15.08841862 40246,6917.875,95.437,540.455,539.024,0.0
53777.0,STARLINK-4664,PAYLOAD,2023-05-28 07:11:51,15.0884221,0.0001038,53.2146,157.0258,84.9921,275.119,5.0683e-05,5.19e-06,0.0,0 STARLINK-4664,1 53777U 22111E   23148.29990232  .00000519  00000-0  50683-4 0  9991,2 53777  53.2146 157.0258 0001038  84.9921 275.1190 15.08842210 40252,6917.874,95.437,540.457,539.021,0.0
53777.0,STARLINK-4664,PAYLOAD,2023-05-29 03:51:52,15.08842127,0.0001042,53.2147,153.1597,84.5131,275.5979,5.4253e-05,5.76e-06,0.0,0 STARLINK-4664,1 53777U 22111E   23149.16102106  .00000576  00000-0  54253-4 0  9993,2 53777  53.2147 153.1597 0001042  84.5131 275.5979 15.08842127 39579,6917.874,95.437,540.46,539.018,0.0
53777.0,STARLINK-4664,PAYLOAD,2023-05-29 10:13:24,15.08842861,0.0001052,53.2147,151.9706,82.7235,277.3877,5.6076e-05,6.05e-06,0.0,0 STARLINK-4664,1 53777U 22111E   23149.42598013  .00000605  00000-0  56076-4 0  9996,2 53777  53.2147 151.9706 0001052  82.7235 277.3877 15.08842861 40421,6917.872,95.437,540.464,539.009,0.0
53777.0,STARLINK-4664,PAYLOAD,2023-05-29 19:45:43,15.08837102,0.0001054,53.2145,150.1852,88.14,271.9713,9.0691e-06,-1.43e-06,0.0,0 STARLINK-4664,1 53777U 22111E   23149.82342490 -.00000143  00000-0  90691-5 0  9996,2 53777  53.2145 150.1852 0001054  88.1400 271.9713 15.08837102 40485,6917.889,95.438,540.483,539.025,0.0
53777.0,STARLINK-4664,PAYLOAD,2023-05-30 00:31:53,15.08834829,0.000106,53.2144,149.2933,85.2751,274.8362,-4.2776e-06,-3.56e-06,0.0,0 STARLINK-4664,1 53777U 22111E   23150.02214712 -.00000356  00000-0 -42776-5 0  9993,2 53777  53.2144 149.2933 0001060  85.2751 274.8362 15.08834829 39705,6917.896,95.438,540.494,539.028,0.0
53777.0,STARLINK-4664,PAYLOAD,2023-05-30 06:53:25,15.08836405,0.000107,53.2144,148.1042,83.0763,277.0351,7.7817e-06,-1.64e-06,0.0,0 STARLINK-4664,1 53777U 22111E   23150.28710624 -.00000164  00000-0  77817-5 0  9994,2 53777  53.2144 148.1042 0001070  83.0763 277.0351 15.08836405 40554,6917.891,95.438,540.497,539.016,0.0
53777.0,STARLINK-4664,PAYLOAD,2023-05-31 09:54:59,15.08838668,0.0001063,53.2148,143.0494,84.1063,276.0051,2.257e-05,7.1e-07,0.0,0 STARLINK-4664,1 53777U 22111E   23151.41318651  .00000071  00000-0  22570-4 0  9995,2 53777  53.2148 143.0494 0001063  84.1063 276.0051 15.08838668 39917,6917.884,95.438,540.485,539.014,0.0
53777.0,STARLINK-4664,PAYLOAD,2023-05-31 16:16:32,15.08835056,9.93e-05,53.2145,141.8593,78.2775,281.8328,2.6843e-05,1.39e-06,0.0,0 STARLINK-4664,1 53777U 22111E   23151.67814918  .00000139  00000-0  26843-4 0  9992,2 53777  53.2145 141.8593 0000993  78.2775 281.8328 15.08835056 40769,6917.896,95.438,540.447,539.074,0.0
53777.0,STARLINK-4664,PAYLOAD,2023-06-01 09:45:46,15.08834595,0.0001099,53.2149,138.589,84.8002,275.3116,5.3531e-05,5.64e-06,0.0,0 STARLINK-4664,1 53777U 22111E   23152.40679230  .00000564  00000-0  53531-4 0  9996,2 53777  53.2149 138.5890 0001099  84.8002 275.3116 15.08834595 40872,6917.897,95.438,540.522,539.002,0.0
53777.0,STARLINK-4664,PAYLOAD,2023-06-02 08:01:10,15.0884458,0.000117,53.2153,134.4261,86.0889,274.0237,0.00010531,1.389e-05,0.0,0 STARLINK-4664,1 53777U 22111E   23153.33414549  .00001389  00000-0  10531-3 0  9997,2 53777  53.2153 134.4261 0001170  86.0889 274.0237 15.08844580 40203,6917.866,95.437,540.541,538.922,0.0
53777.0,STARLINK-4664,PAYLOAD,2023-06-02 15:58:06,15.08839737,0.0001215,53.2156,132.9394,86.4301,273.683,7.2374e-05,8.64e-06,0.0,0 STARLINK-4664,1 53777U 22111E   23153.66534991  .00000864  00000-0  72374-4 0  9998,2 53777  53.2156 132.9394 0001215  86.4301 273.6830 15.08839737 40256,6917.881,95.438,540.587,538.906,0.0
53777.0,STARLINK-4664,PAYLOAD,2023-06-03 04:41:11,15.08838815,0.0001148,53.2149,130.5608,88.2222,271.8902,5.5426e-05,5.94e-06,0.0,0 STARLINK-4664,1 53777U 22111E   23154.19527197  .00000594  00000-0  55426-4 0  9996,2 53777  53.2149 130.5608 0001148  88.2222 271.8902 15.08838815 41142,6917.884,95.438,540.543,538.955,0.0
53777.0,STARLINK-4664,PAYLOAD,2023-06-03 15:48:53,15.08837475,0.0001131,53.2146,128.4791,87.4071,272.7051,3.0827e-05,2.03e-06,0.0,0 STARLINK-4664,1 53777U 22111E   23154.65895372  .00000203  00000-0  30827-4 0  9995,2 53777  53.2146 128.4791 0001131  87.4071 272.7051 15.08837475 41217,6917.888,95.438,540.536,538.971,0.0
53777.0,STARLINK-4664,PAYLOAD,2023-06-04 02:56:35,15.08838547,0.0001139,53.2155,126.3973,88.3452,271.767,8.0833e-06,-1.59e-06,0.0,0 STARLINK-4664,1 53777U 22111E   23155.12263406 -.00000159  00000-0  80833-5 0  9999,2 53777  53.2155 126.3973 0001139  88.3452 271.7670 15.08838547 40471,6917.885,95.438,540.538,538.962,0.0
53777.0,STARLINK-4664,PAYLOAD,2023-06-04 04:31:58,15.08839681,0.0001144,53.2156,126.098,95.9861,264.1261,-1.1272e-05,-4.67e-06,0.0,0 STARLINK-4664,1 53777U 22111E   23155.18887348 -.00000467  00000-0 -11272-4 0  9995,2 53777  53.2156 126.0980 0001144  95.9861 264.1261 15.08839681 41294,6917.881,95.438,540.538,538.955,0.0
